{"type": "FeatureCollection", "features": [{"type": "Feature", "properties": {"norad_id": 28890, "name": "BEIJING 1", "group": "dmc", "lat": 39.890650921489126, "lon": -48.50497776599416, "alt_km": 669.4155286707755, "timestamp": "2025-12-22T23:36:20.366533+00:00", "meta": {"OBJECT_NAME": "BEIJING 1", "OBJECT_ID": "2005-043A", "EPOCH": "2025-12-22T14:45:58.647168", "MEAN_MOTION": 14.63375519, "ECCENTRICITY": 0.00157698, "INCLINATION": 98.2663, "RA_OF_ASC_NODE": 124.1463, "ARG_OF_PERICENTER": 112.1425, "MEAN_ANOMALY": 248.1452, "EPHEMERIS_TYPE": 0, "CLASSIFICATION_TYPE": "U", "NORAD_CAT_ID": 28890, "ELEMENT_SET_NO": 999, "REV_AT_EPOCH": 7482, "BSTAR": 0.00013349801, "MEAN_MOTION_DOT": 6.42e-06, "MEAN_MOTION_DDOT": 0}, "tle": {"line1": "1 28890U 05043A   25356.61526212  .00000642  00000+0  13350-3 0  9991", "line2": "2 28890  98.2663 124.1463 0015769 112.1425 248.1452 14.63375519 74829"}}, "geometry": {"type": "Point", "coordinates": [-48.50497776599416, 39.890650921489126]}}, {"type": "Feature", "properties": {"norad_id": 33320, "name": "HUANJING 1A (HJ-1A)", "group": "dmc", "lat": -4.32130784941386, "lon": 164.27202470190883, "alt_km": 635.7080831523435, "timestamp": "2025-12-22T23:36:20.366559+00:00", "meta": {"OBJECT_NAME": "HUANJING 1A (HJ-1A)", "OBJECT_ID": "2008-041A", "EPOCH": "2025-12-22T14:41:00.080736", "MEAN_MOTION": 14.83423626, "ECCENTRICITY": 0.001944, "INCLINATION": 97.6541, "RA_OF_ASC_NODE": 344.498, "ARG_OF_PERICENTER": 3.2392, "MEAN_ANOMALY": 356.8945, "EPHEMERIS_TYPE": 0, "CLASSIFICATION_TYPE": "U", "NORAD_CAT_ID": 33320, "ELEMENT_SET_NO": 999, "REV_AT_EPOCH": 93222, "BSTAR": 0.00018712343, "MEAN_MOTION_DOT": 1.49e-05, "MEAN_MOTION_DDOT": 0}, "tle": {"line1": "1 33320U 08041A   25356.61180649  .00001490  00000+0  18712-3 0  9995", "line2": "2 33320  97.6541 344.4980 0019440   3.2392 356.8945 14.83423626932221"}}, "geometry": {"type": "Point", "coordinates": [164.27202470190883, -4.32130784941386]}}, {"type": "Feature", "properties": {"norad_id": 33321, "name": "HUANJING 1B (HJ-1B)", "group": "dmc", "lat": 23.65013038891547, "lon": -14.845609689882949, "alt_km": 594.800762921991, "timestamp": "2025-12-22T23:36:20.366574+00:00", "meta": {"OBJECT_NAME": "HUANJING 1B (HJ-1B)", "OBJECT_ID": "2008-041B", "EPOCH": "2025-12-22T13:46:55.193952", "MEAN_MOTION": 14.82843274, "ECCENTRICITY": 0.00379463, "INCLINATION": 97.6398, "RA_OF_ASC_NODE": 348.1331, "ARG_OF_PERICENTER": 44.5736, "MEAN_ANOMALY": 315.8519, "EPHEMERIS_TYPE": 0, "CLASSIFICATION_TYPE": "U", "NORAD_CAT_ID": 33321, "ELEMENT_SET_NO": 999, "REV_AT_EPOCH": 93223, "BSTAR": 6.8120857e-05, "MEAN_MOTION_DOT": 5.06e-06, "MEAN_MOTION_DDOT": 0}, "tle": {"line1": "1 33321U 08041B   25356.57424993  .00000506  00000+0  68121-4 0  9991", "line2": "2 33321  97.6398 348.1331 0037946  44.5736 315.8519 14.82843274932231"}}, "geometry": {"type": "Point", "coordinates": [-14.845609689882949, 23.65013038891547]}}, {"type": "Feature", "properties": {"norad_id": 33446, "name": "YAOGAN-4", "group": "dmc", "lat": -67.70033858753358, "lon": -53.17558652797317, "alt_km": 618.9204641580118, "timestamp": "2025-12-22T23:36:20.366587+00:00", "meta": {"OBJECT_NAME": "YAOGAN-4", "OBJECT_ID": "2008-061A", "EPOCH": "2025-12-22T07:43:11.170848", "MEAN_MOTION": 14.8270923, "ECCENTRICITY": 0.00130547, "INCLINATION": 97.9196, "RA_OF_ASC_NODE": 286.3274, "ARG_OF_PERICENTER": 289.4771, "MEAN_ANOMALY": 70.5032, "EPHEMERIS_TYPE": 0, "CLASSIFICATION_TYPE": "U", "NORAD_CAT_ID": 33446, "ELEMENT_SET_NO": 999, "REV_AT_EPOCH": 91945, "BSTAR": 0.00016579598, "MEAN_MOTION_DOT": 1.286e-05, "MEAN_MOTION_DDOT": 0}, "tle": {"line1": "1 33446U 08061A   25356.32165707  .00001286  00000+0  16580-3 0  9996", "line2": "2 33446  97.9196 286.3274 0013054 289.4771  70.5032 14.82709230919457"}}, "geometry": {"type": "Point", "coordinates": [-53.17558652797317, -67.70033858753358]}}, {"type": "Feature", "properties": {"norad_id": 35681, "name": "DEIMOS-1", "group": "dmc", "lat": 43.71373649615227, "lon": -15.443229276831334, "alt_km": 641.0818710129524, "timestamp": "2025-12-22T23:36:20.366599+00:00", "meta": {"OBJECT_NAME": "DEIMOS-1", "OBJECT_ID": "2009-041A", "EPOCH": "2025-12-22T13:13:25.798656", "MEAN_MOTION": 14.74966388, "ECCENTRICITY": 0.00025403, "INCLINATION": 97.7149, "RA_OF_ASC_NODE": 156.6976, "ARG_OF_PERICENTER": 64.3499, "MEAN_ANOMALY": 295.7973, "EPHEMERIS_TYPE": 0, "CLASSIFICATION_TYPE": "U", "NORAD_CAT_ID": 35681, "ELEMENT_SET_NO": 999, "REV_AT_EPOCH": 88084, "BSTAR": 0.00010938921, "MEAN_MOTION_DOT": 6.88e-06, "MEAN_MOTION_DDOT": 0}, "tle": {"line1": "1 35681U 09041A   25356.55099304  .00000688  00000+0  10939-3 0  9999", "line2": "2 35681  97.7149 156.6976 0002540  64.3499 295.7973 14.74966388880844"}}, "geometry": {"type": "Point", "coordinates": [-15.443229276831334, 43.71373649615227]}}, {"type": "Feature", "properties": {"norad_id": 35683, "name": "UK-DMC 2", "group": "dmc", "lat": 4.201066836494919, "lon": -47.821329250539506, "alt_km": 645.4595013533353, "timestamp": "2025-12-22T23:36:20.366610+00:00", "meta": {"OBJECT_NAME": "UK-DMC 2", "OBJECT_ID": "2009-041C", "EPOCH": "2025-12-22T14:40:31.372608", "MEAN_MOTION": 14.75641387, "ECCENTRICITY": 0.00015479, "INCLINATION": 97.8568, "RA_OF_ASC_NODE": 131.236, "ARG_OF_PERICENTER": 92.4179, "MEAN_ANOMALY": 267.7208, "EPHEMERIS_TYPE": 0, "CLASSIFICATION_TYPE": "U", "NORAD_CAT_ID": 35683, "ELEMENT_SET_NO": 999, "REV_AT_EPOCH": 88052, "BSTAR": 0.00016617131, "MEAN_MOTION_DOT": 1.085e-05, "MEAN_MOTION_DDOT": 0}, "tle": {"line1": "1 35683U 09041C   25356.61147422  .00001085  00000+0  16617-3 0  9994", "line2": "2 35683  97.8568 131.2360 0001547  92.4179 267.7208 14.75641387880526"}}, "geometry": {"type": "Point", "coordinates": [-47.821329250539506, 4.201066836494919]}}, {"type": "Feature", "properties": {"norad_id": 40715, "name": "DMC3-FM1", "group": "dmc", "lat": -45.44926112629176, "lon": 35.93555496342547, "alt_km": 617.2376178088689, "timestamp": "2025-12-22T23:36:20.366621+00:00", "meta": {"OBJECT_NAME": "DMC3-FM1", "OBJECT_ID": "2015-032A", "EPOCH": "2025-12-22T14:30:29.313216", "MEAN_MOTION": 14.85457527, "ECCENTRICITY": 0.00040598, "INCLINATION": 97.6686, "RA_OF_ASC_NODE": 223.4371, "ARG_OF_PERICENTER": 280.8122, "MEAN_ANOMALY": 79.2636, "EPHEMERIS_TYPE": 0, "CLASSIFICATION_TYPE": "U", "NORAD_CAT_ID": 40715, "ELEMENT_SET_NO": 999, "REV_AT_EPOCH": 56369, "BSTAR": 0.00013148348, "MEAN_MOTION_DOT": 1.082e-05, "MEAN_MOTION_DDOT": 0}, "tle": {"line1": "1 40715U 15032A   25356.60450594  .00001082  00000+0  13148-3 0  9992", "line2": "2 40715  97.6686 223.4371 0004059 280.8122  79.2636 14.85457527563694"}}, "geometry": {"type": "Point", "coordinates": [35.93555496342547, -45.44926112629176]}}, {"type": "Feature", "properties": {"norad_id": 40716, "name": "DMC3-FM2", "group": "dmc", "lat": 72.48537482206217, "lon": 70.54862792410805, "alt_km": 608.4622901810153, "timestamp": "2025-12-22T23:36:20.366631+00:00", "meta": {"OBJECT_NAME": "DMC3-FM2", "OBJECT_ID": "2015-032B", "EPOCH": "2025-12-22T15:02:51.872928", "MEAN_MOTION": 14.85456531, "ECCENTRICITY": 0.00046762, "INCLINATION": 97.6744, "RA_OF_ASC_NODE": 224.9097, "ARG_OF_PERICENTER": 287.6822, "MEAN_ANOMALY": 72.3883, "EPHEMERIS_TYPE": 0, "CLASSIFICATION_TYPE": "U", "NORAD_CAT_ID": 40716, "ELEMENT_SET_NO": 999, "REV_AT_EPOCH": 56369, "BSTAR": 2.3165723e-05, "MEAN_MOTION_DOT": 1.48e-06, "MEAN_MOTION_DDOT": 0}, "tle": {"line1": "1 40716U 15032B   25356.62698927  .00000148  00000+0  23166-4 0  9993", "line2": "2 40716  97.6744 224.9097 0004676 287.6822  72.3883 14.85456531563690"}}, "geometry": {"type": "Point", "coordinates": [70.54862792410805, 72.48537482206217]}}, {"type": "Feature", "properties": {"norad_id": 40717, "name": "DMC3-FM3", "group": "dmc", "lat": -10.271268963728966, "lon": -131.70558499150667, "alt_km": 615.1536295921542, "timestamp": "2025-12-22T23:36:20.366641+00:00", "meta": {"OBJECT_NAME": "DMC3-FM3", "OBJECT_ID": "2015-032C", "EPOCH": "2025-12-22T13:57:07.669728", "MEAN_MOTION": 14.85440849, "ECCENTRICITY": 0.00040749, "INCLINATION": 97.6797, "RA_OF_ASC_NODE": 226.5053, "ARG_OF_PERICENTER": 288.6242, "MEAN_ANOMALY": 71.4531, "EPHEMERIS_TYPE": 0, "CLASSIFICATION_TYPE": "U", "NORAD_CAT_ID": 40717, "ELEMENT_SET_NO": 999, "REV_AT_EPOCH": 56369, "BSTAR": 1.1138273e-05, "MEAN_MOTION_DOT": 4.4e-07, "MEAN_MOTION_DDOT": 0}, "tle": {"line1": "1 40717U 15032C   25356.58133877  .00000044  00000+0  11138-4 0  9998", "line2": "2 40717  97.6797 226.5053 0004074 288.6242  71.4531 14.85440849563693"}}, "geometry": {"type": "Point", "coordinates": [-131.70558499150667, -10.271268963728966]}}]}